[{"OBJECT_NAME":"ASTROCAST-0401","OBJECT_ID":"2023-001DF","EPOCH":"2026-03-09T17:04:53.382144","MEAN_MOTION":15.26258462,"ECCENTRICITY":0.00081423,"INCLINATION":97.5547,"RA_OF_ASC_NODE":160.5206,"ARG_OF_PERICENTER":188.4231,"MEAN_ANOMALY":171.6872,"EPHEMERIS_TYPE":0,"CLASSIFICATION_TYPE":"U","NORAD_CAT_ID":55110,"ELEMENT_SET_NO":999,"REV_AT_EPOCH":17602,"BSTAR":0.00037868349,"MEAN_MOTION_DOT":9.75e-5,"MEAN_MOTION_DDOT":0},{"OBJECT_NAME":"STARLINK-36546","OBJECT_ID":"2026-008Q","EPOCH":"2026-03-09T11:11:12.558912","MEAN_MOTION":15.27603549,"ECCENTRICITY":0.00037746,"INCLINATION":43.0026,"RA_OF_ASC_NODE":206.8678,"ARG_OF_PERICENTER":299.9737,"MEAN_ANOMALY":60.074,"EPHEMERIS_TYPE":0,"CLASSIFICATION_TYPE":"U","NORAD_CAT_ID":67459,"ELEMENT_SET_NO":999,"REV_AT_EPOCH":953,"BSTAR":0.00087949749,"MEAN_MOTION_DOT":0.00024039,"MEAN_MOTION_DDOT":0}]
